{
  "type": "FeatureCollection",
  "features": [
    {
      "type": "Feature",
      "properties": {
        "norad_id": 38857,
        "name": "GSAT0103 (GALILEO-FM3)",
        "group": "gnss",
        "lat": -34.277763902899515,
        "lon": -45.95597432995804,
        "alt_km": 23220.46541373749,
        "timestamp": "2025-12-23T20:42:37.317197+00:00",
        "meta_object_name": "GSAT0103 (GALILEO-FM3)",
        "meta_object_id": "2012-055A",
        "meta_epoch": "2025-12-22T21:54:43.252704",
        "meta_mean_motion": 1.70473351,
        "meta_eccentricity": 0.0002995,
        "meta_inclination": 55.698,
        "meta_ra_of_asc_node": 106.3873,
        "meta_arg_of_pericenter": 269.858,
        "meta_mean_anomaly": 90.0891,
        "meta_ephemeris_type": 0,
        "meta_classification_type": "U",
        "meta_norad_cat_id": 38857,
        "meta_element_set_no": 999,
        "meta_rev_at_epoch": 8200,
        "meta_bstar": 0,
        "meta_mean_motion_dot": 1e-07,
        "meta_mean_motion_ddot": 0,
        "tle_line1": "1 38857U 12055A   25356.91300061  .00000010  00000+0  00000+0 0  9994",
        "tle_line2": "2 38857  55.6980 106.3873 0002995 269.8580  90.0891  1.70473351 82005"
      },
      "geometry": {
        "type": "Point",
        "coordinates": [
          -45.95597432995804,
          -34.277763902899515
        ]
      }
    },
    {
      "type": "Feature",
      "properties": {
        "norad_id": 38953,
        "name": "BEIDOU-2 G6 (C02)",
        "group": "gnss",
        "lat": 3.148717869099825,
        "lon": 127.22081621717463,
        "alt_km": 35803.864799509116,
        "timestamp": "2025-12-23T20:42:37.317210+00:00",
        "meta_object_name": "BEIDOU-2 G6 (C02)",
        "meta_object_id": "2012-059A",
        "meta_epoch": "2025-12-23T00:55:51.734208",
        "meta_mean_motion": 1.00268399,
        "meta_eccentricity": 0.00083158,
        "meta_inclination": 3.9737,
        "meta_ra_of_asc_node": 75.4058,
        "meta_arg_of_pericenter": 292.2728,
        "meta_mean_anomaly": 182.0387,
        "meta_ephemeris_type": 0,
        "meta_classification_type": "U",
        "meta_norad_cat_id": 38953,
        "meta_element_set_no": 999,
        "meta_rev_at_epoch": 4814,
        "meta_bstar": 0,
        "meta_mean_motion_dot": -1.55e-06,
        "meta_mean_motion_ddot": 0,
        "tle_line1": "1 38953U 12059A   25357.03879322 -.00000155  00000+0  00000+0 0  9991",
        "tle_line2": "2 38953   3.9737  75.4058 0008315 292.2728 182.0387  1.00268399 48141"
      },
      "geometry": {
        "type": "Point",
        "coordinates": [
          127.22081621717463,
          3.148717869099825
        ]
      }
    },
    {
      "type": "Feature",
      "properties": {
        "norad_id": 38977,
        "name": "LUCH 5B (SDCM/PRN 125)",
        "group": "gnss",
        "lat": -4.187666801464808,
        "lon": 27.357192253038015,
        "alt_km": 35807.69769371335,
        "timestamp": "2025-12-23T20:42:37.317223+00:00",
        "meta_object_name": "LUCH 5B (SDCM/PRN 125)",
        "meta_object_id": "2012-061A",
        "meta_epoch": "2025-12-22T23:21:25.865856",
        "meta_mean_motion": 1.00272063,
        "meta_eccentricity": 0.00065916,
        "meta_inclination": 10.1018,
        "meta_ra_of_asc_node": 51.6073,
        "meta_arg_of_pericenter": 195.9358,
        "meta_mean_anomaly": 178.2582,
        "meta_ephemeris_type": 0,
        "meta_classification_type": "U",
        "meta_norad_cat_id": 38977,
        "meta_element_set_no": 999,
        "meta_rev_at_epoch": 4784,
        "meta_bstar": 0,
        "meta_mean_motion_dot": -1.21e-06,
        "meta_mean_motion_ddot": 0,
        "tle_line1": "1 38977U 12061A   25356.97321604 -.00000121  00000+0  00000+0 0  9990",
        "tle_line2": "2 38977  10.1018  51.6073 0006591 195.9358 178.2582  1.00272063 47847"
      },
      "geometry": {
        "type": "Point",
        "coordinates": [
          27.357192253038015,
          -4.187666801464808
        ]
      }
    },
    {
      "type": "Feature",
      "properties": {
        "norad_id": 39155,
        "name": "COSMOS 2485 (747)",
        "group": "gnss",
        "lat": -9.413875120453945,
        "lon": 75.14119828383109,
        "alt_km": 19162.711129300456,
        "timestamp": "2025-12-23T20:42:37.317235+00:00",
        "meta_object_name": "COSMOS 2485 (747)",
        "meta_object_id": "2013-019A",
        "meta_epoch": "2025-12-22T11:14:56.157792",
        "meta_mean_motion": 2.13103251,
        "meta_eccentricity": 0.00249447,
        "meta_inclination": 65.3184,
        "meta_ra_of_asc_node": 79.5401,
        "meta_arg_of_pericenter": 230.2875,
        "meta_mean_anomaly": 129.5355,
        "meta_ephemeris_type": 0,
        "meta_classification_type": "U",
        "meta_norad_cat_id": 39155,
        "meta_element_set_no": 999,
        "meta_rev_at_epoch": 9851,
        "meta_bstar": 0,
        "meta_mean_motion_dot": -2e-08,
        "meta_mean_motion_ddot": 0,
        "tle_line1": "1 39155U 13019A   25356.46870553 -.00000002  00000+0  00000+0 0  9997",
        "tle_line2": "2 39155  65.3184  79.5401 0024944 230.2875 129.5355  2.13103251 98519"
      },
      "geometry": {
        "type": "Point",
        "coordinates": [
          75.14119828383109,
          -9.413875120453945
        ]
      }
    },
    {
      "type": "Feature",
      "properties": {
        "norad_id": 39166,
        "name": "GPS BIIF-4  (PRN 27)",
        "group": "gnss",
        "lat": 37.26481939507471,
        "lon": 63.46645173636379,
        "alt_km": 20130.02590374748,
        "timestamp": "2025-12-23T20:42:37.317252+00:00",
        "meta_object_name": "GPS BIIF-4  (PRN 27)",
        "meta_object_id": "2013-023A",
        "meta_epoch": "2025-12-22T04:30:56.781216",
        "meta_mean_motion": 2.00564649,
        "meta_eccentricity": 0.01384833,
        "meta_inclination": 54.6439,
        "meta_ra_of_asc_node": 276.1841,
        "meta_arg_of_pericenter": 48.7288,
        "meta_mean_anomaly": 312.4984,
        "meta_ephemeris_type": 0,
        "meta_classification_type": "U",
        "meta_norad_cat_id": 39166,
        "meta_element_set_no": 999,
        "meta_rev_at_epoch": 9233,
        "meta_bstar": 0,
        "meta_mean_motion_dot": -1.5e-07,
        "meta_mean_motion_ddot": 0,
        "tle_line1": "1 39166U 13023A   25356.18815719 -.00000015  00000+0  00000+0 0  9990",
        "tle_line2": "2 39166  54.6439 276.1841 0138483  48.7288 312.4984  2.00564649 92335"
      },
      "geometry": {
        "type": "Point",
        "coordinates": [
          63.46645173636379,
          37.26481939507471
        ]
      }
    },
    {
      "type": "Feature",
      "properties": {
        "norad_id": 39199,
        "name": "IRNSS-1A",
        "group": "gnss",
        "lat": 17.703655334095213,
        "lon": 93.1474922467529,
        "alt_km": 35887.63799316072,
        "timestamp": "2025-12-23T20:42:37.317266+00:00",
        "meta_object_name": "IRNSS-1A",
        "meta_object_id": "2013-034A",
        "meta_epoch": "2025-12-22T18:33:45.913248",
        "meta_mean_motion": 1.00272973,
        "meta_eccentricity": 0.00245932,
        "meta_inclination": 35.3347,
        "meta_ra_of_asc_node": 66.4064,
        "meta_arg_of_pericenter": 215.1695,
        "meta_mean_anomaly": 143.2435,
        "meta_ephemeris_type": 0,
        "meta_classification_type": "U",
        "meta_norad_cat_id": 39199,
        "meta_element_set_no": 999,
        "meta_rev_at_epoch": 4559,
        "meta_bstar": 0,
        "meta_mean_motion_dot": 7.6e-07,
        "meta_mean_motion_ddot": 0,
        "tle_line1": "1 39199U 13034A   25356.77344807  .00000076  00000+0  00000+0 0  9994",
        "tle_line2": "2 39199  35.3347  66.4064 0024593 215.1695 143.2435  1.00272973 45592"
      },
      "geometry": {
        "type": "Point",
        "coordinates": [
          93.1474922467529,
          17.703655334095213
        ]
      }
    },
    {
      "type": "Feature",
      "properties": {
        "norad_id": 39533,
        "name": "GPS BIIF-5  (PRN 30)",
        "group": "gnss",
        "lat": 36.77574668789628,
        "lon": -56.94112265986389,
        "alt_km": 20192.998390978413,
        "timestamp": "2025-12-23T20:42:37.317279+00:00",
        "meta_object_name": "GPS BIIF-5  (PRN 30)",
        "meta_object_id": "2014-008A",
        "meta_epoch": "2025-12-20T16:28:24.690432",
        "meta_mean_motion": 2.00548724,
        "meta_eccentricity": 0.00795742,
        "meta_inclination": 53.6246,
        "meta_ra_of_asc_node": 156.6308,
        "meta_arg_of_pericenter": 226.1122,
        "meta_mean_anomaly": 133.2164,
        "meta_ephemeris_type": 0,
        "meta_classification_type": "U",
        "meta_norad_cat_id": 39533,
        "meta_element_set_no": 999,
        "meta_rev_at_epoch": 8610,
        "meta_bstar": 0,
        "meta_mean_motion_dot": 6.5e-07,
        "meta_mean_motion_ddot": 0,
        "tle_line1": "1 39533U 14008A   25354.68639688  .00000065  00000+0  00000+0 0  9998",
        "tle_line2": "2 39533  53.6246 156.6308 0079574 226.1122 133.2164  2.00548724 86105"
      },
      "geometry": {
        "type": "Point",
        "coordinates": [
          -56.94112265986389,
          36.77574668789628
        ]
      }
    }
  ]
}